GLOBALSTAR M024 [-]     
1 25883U 99043A   23360.38362153 -.00000135  00000+0 -24737-2 0  9991
2 25883  51.9984 156.3339 0000316 334.3341  36.5519 11.10157090 55021
GLOBALSTAR M027 [-]     
1 25884U 99043B   23359.85977857 -.00000059  00000+0  17685-3 0  9994
2 25884  52.0186 220.2248 0020597 197.8226 162.1846 11.04366897 81652
GLOBALSTAR M054 [-]     
1 25885U 99043C   23360.47942396 -.00000080  00000+0 -23430-3 0  9995
2 25885  52.0152  76.5419 0003806 327.8048 123.6405 11.39202698 57651
GLOBALSTAR M053 [-]     
1 25886U 99043D   23360.31557228 -.00000058  00000+0  31166-3 0  9994
2 25886  52.0012 354.1373 0003282 248.2314 214.3109 11.27652611 58652
GLOBALSTAR M058 [-]     
1 25907U 99049A   23360.57500326 -.00000090  00000+0 -73373-4 0  9993
2 25907  51.9938 107.3741 0001717 322.5010  37.5705 11.93171779477249
GLOBALSTAR M050 [-]     
1 25908U 99049B   23360.46462846 -.00000163  00000+0 -84962-3 0  9992
2 25908  51.9958 155.5910 0009613  45.7454 351.5859 12.07424922 83119
GLOBALSTAR M033 [-]     
1 25909U 99049C   23360.46245758 -.00000073  00000+0  17678-3 0  9993
2 25909  51.9926  64.6416 0011347 242.7917 117.1774 12.20261828469979
GLOBALSTAR M055 [-]     
1 25910U 99049D   23360.47087208 -.00000090  00000+0  32227-4 0  9997
2 25910  52.0018 101.5792 0007775  96.2079 263.9658 12.29392471102023
